UNISAT-7
1 47945U 21022P   25079.71198912  .00021655  00000-0  81952-3 0  9994
2 47945  97.4295 338.6068 0009943 247.9451 112.0732 15.26909962220366
CUBESX-SIRIUS-HSE
1 47951U 21022V   25080.17234181  .00164882  00000-0  19638-2 0  9993
2 47951  97.4269 348.8416 0005784 187.5615 172.5555 15.60531654221175
CUBESX-HSE (RS13S)
1 47952U 21022W   25080.20418157  .00163307  00000-0  19013-2 0  9993
2 47952  97.4270 349.0839 0006135 180.0265 180.0993 15.61130609221198
KSU-CUBESAT
1 47954U 21022Y   25079.80784286  .04512154  24789-5  18472-2 0  9993
2 47954  97.4032 354.3295 0007364 173.7070 186.4314 16.23292442221212
CHALLENGEONE
1 47956U 21022AA  25079.27015569  .00300078  00000-0  23597-2 0  9992
2 47956  97.4250 349.6874 0006203 172.5254 187.6102 15.70573642220939
GRBALPHA
1 47959U 21022AD  25080.17055785  .00160492  00000-0  18882-2 0  9995
2 47959  97.4258 349.1920 0005756 186.3645 173.7540 15.60868296220018
ORBICRAFT-ZORKIY (RS15S)
1 47960U 21022AE  25080.11838882  .00444036  00000-0  22632-2 0  9995
2 47960  97.4223 352.9513 0007088 152.6421 207.5221 15.80202036220917
CSS (TIANHE-1)
1 48274U 21035A   25079.33612034  .00054061  00000-0  61244-3 0  9997
2 48274  41.4653 201.6984 0005028  45.3704 314.7544 15.61519420222264
FENGYUN-4B
1 48808U 21047A   25079.49023027 -.00000323  00000-0  00000+0 0  9990
2 48808   0.1470 105.9110 0012629 349.5841   3.8654  1.00273411 14014
TUBIN
1 48900U 21059X   25080.17113677  .00067286  00000-0  11281-2 0  9990
2 48900  97.6706 243.3971 0004486 186.3456 173.7739 15.51594823207539
LEDSAT
1 49069U 21073D   25080.19605916  .00076860  00000-0  14120-2 0  9990
2 49069  97.3956 159.0408 0010571  13.5123 346.6409 15.48909561198946
CUTE-LASP
1 49263U 21088D   25080.18894697  .00025057  00000-0  56685-3 0  9992
2 49263  97.4571 154.3016 0009849 168.7294 191.4176 15.43088371192018
HEAD-2F
1 49322U 21091H   25080.20106075  .00199818  00000-0  12123-2 0  9996
2 49322  97.4083 291.8958 0005247 139.1798 220.9862 15.76945940191797
JILIN-01 GAOFEN 2F
1 49338U 21097A   25080.20838202  .00026579  14361-6  10452-2 0  9990
2 49338  97.6065 204.9461 0013034 211.8153 148.2299 15.25621500186085
TEIKYOSAT-4 (OORURI)
1 49396U 21102B   25079.69968703  .00005600  00000-0  37625-3 0  9995
2 49396  97.4219 121.0255 0014155  56.6304 303.6277 15.07087506184360
Z-SAT
1 49399U 21102E   25080.24928028  .00009667  00000-0  54321-3 0  9996
2 49399  97.3920 124.1800 0018993  27.9633 332.2615 15.13348597184823
KOSEN-1
1 49402U 21102H   25080.07171764  .00016482  00000-0  79565-3 0  9999
2 49402  97.3824 126.8454 0016145   6.5220 353.6222 15.18625735185062
CAMSAT XW-3 (CAS-9)
1 50466U 21131B   25080.20061828  .00001970  00000-0  63118-3 0  9990
2 50466  98.5086 169.9652 0004423  33.1614 326.9851 14.40640810169871
SICH-2-1 (SICH-2-30)
1 51030U 22002AY  25080.15740534  .00078300  00000-0  12280-2 0  9992
2 51030  97.3431 154.2468 0005227 125.9954 234.1785 15.53411474176996
IRIS-A
1 51044U 22002BN  25079.75800483  .00169645  00000-0  16384-2 0  9993
2 51044  97.3351 155.9705 0003035 147.3299 212.8150 15.65916613177111
VZLUSAT-2
1 51085U 22002DF  25080.12850738  .00064188  00000-0  12085-2 0  9999
2 51085  97.3427 151.1965 0007645 139.7884 220.3933 15.48285674176795
INSPIRESAT-1
1 51657U 22013B   25079.96183929  .00036682  00000-0  91363-3 0  9992
2 51657  97.5042 107.1817 0004774 253.7393 106.3328 15.40145910171958
GOES-18
1 51850U 22021A   25080.14186369  .00000103  00000-0  00000+0 0  9992
2 51850   0.0322  11.6436 0000606  68.5710  12.7571  1.00273219 11266
MERIDIAN-10
1 52145U 22030A   25078.84898248  .00000225  00000-0  00000-0 0  9996
2 52145  62.6546 188.6071 6754728 273.5312  17.6374  2.00599263 21929
BRO-7
1 52174U 22033T   25080.21860891  .00073169  00000-0  72220-3 0  9991
2 52174  97.2986 174.7752 0004707 339.9304  20.1771 15.65677638166335
BRO-6
1 52422U 22047AE  25080.15014752  .00024372  00000-0  75730-3 0  9993
2 52422  97.3671 163.5399 0004628 255.8240 104.2488 15.33333054161401
CONNECTA-T1
1 52739U 22057H   25079.85319503  .00062312  00000-0  12964-2 0  9997
2 52739  97.6007 215.1463 0006073 259.4117 100.6447 15.45398624156623
PLATFORM-1
1 52770U 22057AQ  25079.81589202  .00109611  00000-0  20401-2 0  9992
2 52770  97.5977 218.6928 0007854 241.3187 118.7274 15.48432720156898
STEP CUBELAB-II
1 52897U 22065D   25080.22308856  .00003281  00000-0  66248-3 0  9998
2 52897  98.1563 222.6540 0008679  12.0201 348.1206 14.62055797145282
RANDEV
1 52898U 22065E   25080.19436249  .00003610  00000-0  72319-3 0  9995
2 52898  98.1553 222.7974 0008008  13.9630 346.1791 14.62355857145014
SNUGLITE-II
1 52899U 22065F   25080.20036016  .00004033  00000-0  79817-3 0  9996
2 52899  98.1543 223.0299 0007494  14.2219 345.9193 14.62848510144737
MIMAN
1 52900U 22065G   25079.86892222  .00002546  00000-0  52899-3 0  9996
2 52900  98.1583 221.6816 0007655  12.5825 347.5565 14.60942306144238
GREENCUBE (IO-117)
1 53106U 22080B   25051.21822557 -.00000003  00000-0  00000+0 0  9995
2 53106  70.1434 106.3440 0008542  48.0089 312.1297  6.42557744 61200
ROBUSTA 1F (MTCUBE-2)
1 53109U 22080E   25079.03744831 -.00000003  00000-0  00000-0 0  9997
2 53109  70.1185  96.1880 0008470  25.1105 334.9965  6.42584442 62889
BLUEWALKER-3
1 53807U 22111AL  25079.98484485  .00009507  00000-0  31228-3 0  9993
2 53807  53.2329 351.4025 0006593 200.5246 159.5493 15.32252296140593
ELEKTRO-L4
1 55506U 23016A   25079.04552405 -.00000052  00000-0  00000-0 0  9999
2 55506   0.0150  56.5501 0000489 279.1651  24.2824  1.00270506  7777
SHARJAHSAT-1
1 55104U 23001CZ  25080.15212630  .00023689  00000-0  76654-3 0  9995
2 55104  97.3810 141.8946 0006963 298.2031  61.8507 15.32028511122771
METEOR M2-3
1 57166U 23091A   25080.17934124  .00000122  00000-0  72383-4 0  9998
2 57166  98.6717 137.8080 0004817  57.3140 302.8503 14.23985318 90040
STRATOSAT-TK1 (RS52S)
1 57167U 23091B   25080.23061444  .00057054  00000-0  18068-2 0  9996
2 57167  97.5643 141.4900 0010305 227.1001 132.9376 15.32490630 95674
RESHUCUBE-2 (RS37S)
1 57168U 23091C   25080.19948926  .00017718  00000-0  90508-3 0  9994
2 57168  97.5671 136.9279 0012951 245.0158 114.9731 15.16678150 95374
RASSVET 1-1
1 57169U 23091D   25080.22920429  .00015118  00000-0  80126-3 0  9994
2 57169  97.5730 136.9730 0011414 233.5582 126.4599 15.15427295 95369
RASSVET 1-2
1 57170U 23091E   25080.22934438  .00015218  00000-0  80684-3 0  9991
2 57170  97.5735 137.0185 0010327 223.8184 136.2229 15.15425563 95369
RASSVET 1-3
1 57171U 23091F   25080.22895477  .00015227  00000-0  80691-3 0  9999
2 57171  97.5732 136.9912 0012098 245.2368 114.7606 15.15425718 95364
UMKA-1 (RS40S)
1 57172U 23091G   25080.21344467  .00013042  00000-0  72167-3 0  9999
2 57172  97.5691 136.0425 0013560 248.7821 111.1962 15.13906251 95311
SATURN (RS43S)
1 57174U 23091J   25080.21021521  .00006964  00000-0  43572-3 0  9997
2 57174  97.5704 134.2725 0012926 265.6665  94.3087 15.09655587 95194
CUBEBEL-2 (EU11S)
1 57175U 23091K   25080.23477666  .00019777  00000-0  10001-2 0  9991
2 57175  97.5687 136.7702 0011652 258.1258 101.8668 15.17023362 95364
SITRO-AIS-5 (ANOKHIN)
1 57176U 23091L   25080.17920922  .00020180  00000-0  10060-2 0  9998
2 57176  97.5688 137.0733 0013859 245.6185 114.3602 15.17494125 95372
ZORKIY-2M
1 57177U 23091M   25080.19988822  .00011281  00000-0  62901-3 0  9998
2 57177  97.5723 136.2194 0014508 244.8770 115.0956 15.13657520 95318
CUBESX-HSE-3 (RS42S)
1 57178U 23091N   25080.19510707  .00020496  00000-0  99693-3 0  9998
2 57178  97.5715 137.7384 0013463 238.0580 121.9345 15.18354796 95402
PHI-DEMO
1 57181U 23091R   25080.19079134  .00007890  00000-0  48408-3 0  9997
2 57181  97.5702 134.5905 0015183 255.6581 104.2963 15.10301686 95214
MONITOR-3 (RS58S)
1 57180U 23091Q   25080.20683310  .00018626  00000-0  94270-3 0  9992
2 57180  97.5712 137.2112 0013850 239.7440 120.2422 15.16981022 95379
NORBY-2
1 57179U 23091P   25080.19439741  .00009471  00000-0  56174-3 0  9994
2 57179  97.5735 135.3609 0015254 246.4212 113.5416 15.11472879 95248
MONITOR-4 (RS57S)
1 57182U 23091S   25080.20553077  .00018113  00000-0  91599-3 0  9992
2 57182  97.5707 137.1683 0013853 240.5239 119.4613 15.17016475 95370
MONITOR-2 (RS39S)
1 57184U 23091U   25079.90299658  .00012702  00000-0  71864-3 0  9992
2 57184  97.5715 136.0871 0011701 238.8904 121.1179 15.13138374 95272
SVYATOBOR-1 (RS60S)
1 57187U 23091X   25080.17203266  .00018341  00000-0  92760-3 0  9999
2 57187  97.5714 137.8861 0010865 229.8477 130.1805 15.17042796 95415
VIZARD-METEO (RS38S)
1 57189U 23091Z   25080.21192219  .00023309  00000-0  10563-2 0  9991
2 57189  97.5702 139.3013 0009695 222.1172 137.9319 15.20815228 95515
NANOZOND-1 (RS49S)
1 57190U 23091AA  25080.18031323  .00046432  00000-0  15925-2 0  9996
2 57190  97.5658 141.8794 0007804 217.7062 142.3632 15.29993480 95692
SITRO-AIS-6 (CHIRKIN)
1 57192U 23091AC  25080.16228518  .00020449  00000-0  10212-2 0  9994
2 57192  97.5689 137.0787 0013691 245.3286 114.6522 15.17433013 95376
SITRO-AIS-8 (SHCHUKIN)
1 57193U 23091AD  25080.20436162  .00021154  00000-0  10222-2 0  9991
2 57193  97.5685 137.4684 0013205 244.8078 115.1787 15.18580063 95409
SITRO-AIS-7 (SHEFFER)
1 57194U 23091AE  25080.17927664  .00020001  00000-0  10010-2 0  9995
2 57194  97.5686 137.0459 0013664 246.1971 113.7830 15.17361604 95379
AVION KALUGA 650
1 57195U 23091AF  25080.20861718  .00011857  00000-0  65751-3 0  9999
2 57195  97.5730 136.8571 0010805 237.1191 122.9001 15.13882011 95345
YARILO 3
1 57198U 23091AJ  25080.21596318  .00289854  00000-0  32198-2 0  9996
2 57198  97.5616 148.1025 0007221 223.6340 136.4347 15.61936145 96070
SITRO-AIS-10 (KATYS)
1 57199U 23091AK  25080.22100744  .00024870  00000-0  11042-2 0  9992
2 57199  97.5696 139.4046 0009350 226.4956 133.5503 15.21506754 95520
